{
  "type": "FeatureCollection",
  "features": [
    {
      "type": "Feature",
      "properties": {
        "norad_id": 37704,
        "name": "FENGYUN 1C DEB",
        "group": "fengyun-1c-debris",
        "lat": -55.338570159893635,
        "lon": -0.570438750897076,
        "alt_km": 1011.4881082143993,
        "timestamp": "2025-12-26T07:29:18.745169+00:00",
        "meta_object_name": "FENGYUN 1C DEB",
        "meta_object_id": "1999-025ELV",
        "meta_epoch": "2025-12-10T18:58:47.253216",
        "meta_mean_motion": 13.70500661,
        "meta_eccentricity": 0.02401356,
        "meta_inclination": 98.3199,
        "meta_ra_of_asc_node": 178.1952,
        "meta_arg_of_pericenter": 184.1814,
        "meta_mean_anomaly": 190.5574,
        "meta_ephemeris_type": 0,
        "meta_classification_type": "U",
        "meta_norad_cat_id": 37704,
        "meta_element_set_no": 999,
        "meta_rev_at_epoch": 62338,
        "meta_bstar": 0.0019314833,
        "meta_mean_motion_dot": 2.062e-05,
        "meta_mean_motion_ddot": 0,
        "tle_line1": "1 37704U 99025ELV 25344.79082469  .00002062  00000+0  19315-2 0  9999",
        "tle_line2": "2 37704  98.3199 178.1952 0240135 184.1814 190.5574 13.70500661623389"
      },
      "geometry": {
        "type": "Point",
        "coordinates": [
          -0.570438750897076,
          -55.338570159893635
        ]
      }
    },
    {
      "type": "Feature",
      "properties": {
        "norad_id": 37707,
        "name": "FENGYUN 1C DEB",
        "group": "fengyun-1c-debris",
        "lat": -30.73686969919245,
        "lon": -178.8152481880017,
        "alt_km": 781.7099955015256,
        "timestamp": "2025-12-26T07:29:18.745180+00:00",
        "meta_object_name": "FENGYUN 1C DEB",
        "meta_object_id": "1999-025ELY",
        "meta_epoch": "2025-12-17T06:35:19.530240",
        "meta_mean_motion": 14.56477467,
        "meta_eccentricity": 0.01433735,
        "meta_inclination": 100.2206,
        "meta_ra_of_asc_node": 356.2824,
        "meta_arg_of_pericenter": 12.733,
        "meta_mean_anomaly": 358.6114,
        "meta_ephemeris_type": 0,
        "meta_classification_type": "U",
        "meta_norad_cat_id": 37707,
        "meta_element_set_no": 999,
        "meta_rev_at_epoch": 85632,
        "meta_bstar": 0.00056858098,
        "meta_mean_motion_dot": 2.832e-05,
        "meta_mean_motion_ddot": 0,
        "tle_line1": "1 37707U 99025ELY 25351.27453160  .00002832  00000+0  56858-3 0  9992",
        "tle_line2": "2 37707 100.2206 356.2824 0143373  12.7330 358.6114 14.56477467856327"
      },
      "geometry": {
        "type": "Point",
        "coordinates": [
          -178.8152481880017,
          -30.73686969919245
        ]
      }
    },
    {
      "type": "Feature",
      "properties": {
        "norad_id": 37712,
        "name": "FENGYUN 1C DEB",
        "group": "fengyun-1c-debris",
        "lat": 18.58947008495205,
        "lon": -37.35835219535057,
        "alt_km": 820.3184474909085,
        "timestamp": "2025-12-26T07:29:18.745190+00:00",
        "meta_object_name": "FENGYUN 1C DEB",
        "meta_object_id": "1999-025EMD",
        "meta_epoch": "2025-12-21T03:52:22.322208",
        "meta_mean_motion": 14.3644777,
        "meta_eccentricity": 0.00788764,
        "meta_inclination": 98.8186,
        "meta_ra_of_asc_node": 134.3771,
        "meta_arg_of_pericenter": 328.6052,
        "meta_mean_anomaly": 212.8774,
        "meta_ephemeris_type": 0,
        "meta_classification_type": "U",
        "meta_norad_cat_id": 37712,
        "meta_element_set_no": 999,
        "meta_rev_at_epoch": 64081,
        "meta_bstar": 0.00029257715,
        "meta_mean_motion_dot": 8.41e-06,
        "meta_mean_motion_ddot": 0,
        "tle_line1": "1 37712U 99025EMD 25355.16136947  .00000841  00000+0  29258-3 0  9993",
        "tle_line2": "2 37712  98.8186 134.3771 0078876 328.6052 212.8774 14.36447770640813"
      },
      "geometry": {
        "type": "Point",
        "coordinates": [
          -37.35835219535057,
          18.58947008495205
        ]
      }
    },
    {
      "type": "Feature",
      "properties": {
        "norad_id": 37714,
        "name": "FENGYUN 1C DEB",
        "group": "fengyun-1c-debris",
        "lat": -35.902325640778734,
        "lon": -74.1539269615673,
        "alt_km": 823.6762155933402,
        "timestamp": "2025-12-26T07:29:18.745201+00:00",
        "meta_object_name": "FENGYUN 1C DEB",
        "meta_object_id": "1999-025EMF",
        "meta_epoch": "2025-12-23T01:21:50.423040",
        "meta_mean_motion": 14.32327633,
        "meta_eccentricity": 0.00473504,
        "meta_inclination": 98.8929,
        "meta_ra_of_asc_node": 109.0175,
        "meta_arg_of_pericenter": 53.8704,
        "meta_mean_anomaly": 306.6848,
        "meta_ephemeris_type": 0,
        "meta_classification_type": "U",
        "meta_norad_cat_id": 37714,
        "meta_element_set_no": 999,
        "meta_rev_at_epoch": 57657,
        "meta_bstar": 0.0019523665,
        "meta_mean_motion_dot": 5.296e-05,
        "meta_mean_motion_ddot": 0,
        "tle_line1": "1 37714U 99025EMF 25357.05683360  .00005296  00000+0  19524-2 0  9994",
        "tle_line2": "2 37714  98.8929 109.0175 0047350  53.8704 306.6848 14.32327633576577"
      },
      "geometry": {
        "type": "Point",
        "coordinates": [
          -74.1539269615673,
          -35.902325640778734
        ]
      }
    },
    {
      "type": "Feature",
      "properties": {
        "norad_id": 37715,
        "name": "FENGYUN 1C DEB",
        "group": "fengyun-1c-debris",
        "lat": 18.903874389806692,
        "lon": 4.594897597675016,
        "alt_km": 862.1824165372418,
        "timestamp": "2025-12-26T07:29:18.745211+00:00",
        "meta_object_name": "FENGYUN 1C DEB",
        "meta_object_id": "1999-025EMG",
        "meta_epoch": "2025-12-25T21:37:21.158112",
        "meta_mean_motion": 13.95432374,
        "meta_eccentricity": 0.01145649,
        "meta_inclination": 98.9558,
        "meta_ra_of_asc_node": 7.2911,
        "meta_arg_of_pericenter": 76.1693,
        "meta_mean_anomaly": 40.1928,
        "meta_ephemeris_type": 0,
        "meta_classification_type": "U",
        "meta_norad_cat_id": 37715,
        "meta_element_set_no": 999,
        "meta_rev_at_epoch": 57987,
        "meta_bstar": 0.00064796039,
        "meta_mean_motion_dot": 8.86e-06,
        "meta_mean_motion_ddot": 0,
        "tle_line1": "1 37715U 99025EMG 25359.90093933  .00000886  00000+0  64796-3 0  9994",
        "tle_line2": "2 37715  98.9558   7.2911 0114564  76.1693  40.1928 13.95432374579873"
      },
      "geometry": {
        "type": "Point",
        "coordinates": [
          4.594897597675016,
          18.903874389806692
        ]
      }
    },
    {
      "type": "Feature",
      "properties": {
        "norad_id": 37717,
        "name": "FENGYUN 1C DEB",
        "group": "fengyun-1c-debris",
        "lat": -44.31892056888527,
        "lon": 128.9502348990212,
        "alt_km": 629.8103005831963,
        "timestamp": "2025-12-26T07:29:18.745221+00:00",
        "meta_object_name": "FENGYUN 1C DEB",
        "meta_object_id": "1999-025EMJ",
        "meta_epoch": "2025-12-15T15:45:42.031008",
        "meta_mean_motion": 14.94137729,
        "meta_eccentricity": 0.0058722,
        "meta_inclination": 98.7255,
        "meta_ra_of_asc_node": 305.7435,
        "meta_arg_of_pericenter": 93.683,
        "meta_mean_anomaly": 83.3944,
        "meta_ephemeris_type": 0,
        "meta_classification_type": "U",
        "meta_norad_cat_id": 37717,
        "meta_element_set_no": 999,
        "meta_rev_at_epoch": 89441,
        "meta_bstar": 0.0018768118,
        "meta_mean_motion_dot": 0.00020752,
        "meta_mean_motion_ddot": 0,
        "tle_line1": "1 37717U 99025EMJ 25349.65673647  .00020752  00000+0  18768-2 0  9994",
        "tle_line2": "2 37717  98.7255 305.7435 0058722  93.6830  83.3944 14.94137729894417"
      },
      "geometry": {
        "type": "Point",
        "coordinates": [
          128.9502348990212,
          -44.31892056888527
        ]
      }
    },
    {
      "type": "Feature",
      "properties": {
        "norad_id": 37719,
        "name": "FENGYUN 1C DEB",
        "group": "fengyun-1c-debris",
        "lat": 21.191748465397716,
        "lon": -148.0975526407486,
        "alt_km": 689.7597392765774,
        "timestamp": "2025-12-26T07:29:18.745232+00:00",
        "meta_object_name": "FENGYUN 1C DEB",
        "meta_object_id": "1999-025EML",
        "meta_epoch": "2025-12-21T08:06:10.221120",
        "meta_mean_motion": 14.56171039,
        "meta_eccentricity": 0.00438458,
        "meta_inclination": 99.5008,
        "meta_ra_of_asc_node": 22.5212,
        "meta_arg_of_pericenter": 233.5664,
        "meta_mean_anomaly": 142.7059,
        "meta_ephemeris_type": 0,
        "meta_classification_type": "U",
        "meta_norad_cat_id": 37719,
        "meta_element_set_no": 999,
        "meta_rev_at_epoch": 364,
        "meta_bstar": 0.0012070078,
        "meta_mean_motion_dot": 5.344e-05,
        "meta_mean_motion_ddot": 0,
        "tle_line1": "1 37719U 99025EML 25355.33761830  .00005344  00000+0  12070-2 0  9990",
        "tle_line2": "2 37719  99.5008  22.5212 0043845 233.5664 142.7059 14.56171039  3645"
      },
      "geometry": {
        "type": "Point",
        "coordinates": [
          -148.0975526407486,
          21.191748465397716
        ]
      }
    }
  ]
}